ONEWEB-0211             
1 48767U 21045A   26179.59392672  .00000100  00000+0  23013-3 0  9994
2 48767  87.9004 256.8072 0002289 116.9507 243.1858 13.16197395245942
ONEWEB-0223             
1 48768U 21045B   26179.60186579  .00000044  00000+0  81965-4 0  9992
2 48768  87.9008 256.9170 0001964 111.9962 248.1377 13.15549912245908
ONEWEB-0230             
1 48769U 21045C   26179.57334545  .00000062  00000+0  13145-3 0  9991
2 48769  87.8995 256.9354 0001940  95.3324 264.8028 13.15548726246167
ONEWEB-0237             
1 48770U 21045D   26179.48619337 -.00000374  00000+0 -10281-2 0  9993
2 48770  87.9000 256.9590 0001597 115.9883 244.1412 13.15545904245876
ONEWEB-0235             
1 48771U 21045E   26179.61295840  .00000001  00000+0 -31156-4 0  9990
2 48771  87.9008 256.9159 0001899 111.3153 248.8180 13.15549496245885
ONEWEB-0242             
1 48772U 21045F   26179.60661938  .00000015  00000+0  52462-5 0  9993
2 48772  87.9010 256.9142 0001813 101.4778 258.6556 13.15548005245926
ONEWEB-0241             
1 48773U 21045G   26179.59394170  .00000094  00000+0  21625-3 0  9995
2 48773  87.8997 256.9338 0002125 111.7311 248.4046 13.15550057245832
ONEWEB-0243             
1 48774U 21045H   26179.47351100 -.00000029  00000+0 -11241-3 0  9992
2 48774  87.8999 256.9703 0001504 104.9312 255.1985 13.15550241245849
ONEWEB-0222             
1 48775U 21045J   26179.60898680  .00000059  00000+0  12342-3 0  9991
2 48775  87.9008 256.9116 0002007 106.5481 253.5870 13.15549893245907
ONEWEB-0244             
1 48776U 21045K   26179.63513892 -.00000137  00000+0 -39779-3 0  9996
2 48776  87.9011 256.9017 0001916 103.0523 257.0822 13.15549285246473
ONEWEB-0247             
1 48777U 21045L   26179.63197386 -.00000136  00000+0 -39476-3 0  9996
2 48777  87.8998 256.9331 0001490 120.2920 239.8358 13.15547808245914
ONEWEB-0245             
1 48778U 21045M   26179.47510065 -.00000118  00000+0 -34669-3 0  9991
2 48778  87.9007 256.9446 0002099 104.9314 255.2049 13.15548793245863
ONEWEB-0229             
1 48779U 21045N   26179.47034286 -.00000051  00000+0 -16873-3 0  9991
2 48779  87.9008 256.9433 0001875 100.3292 259.8049 13.15550202245898
ONEWEB-0228             
1 48780U 21045P   26179.57982110  .00000133  00000+0  31962-3 0  9997
2 48780  87.9011 256.9148 0001969 102.3303 257.8048 13.15547955245827
ONEWEB-0232             
1 48781U 21045Q   26179.63038350 -.00000108  00000+0 -32145-3 0  9991
2 48781  87.9011 256.9055 0002090 101.2462 258.8903 13.15547331246151
ONEWEB-0231             
1 48782U 21045R   26179.60819631 -.00000005  00000+0 -47356-4 0  9995
2 48782  87.9005 256.9222 0001950 107.0040 253.1304 13.15549139245847
ONEWEB-0234             
1 48783U 21045S   26179.26580217  .00000014  00000+0  21760-5 0  9993
2 48783  87.9004 256.9724 0002858 100.6884 259.4568 13.15549601245932
ONEWEB-0238             
1 48784U 21045T   26179.49425511  .00000060  00000+0  12618-3 0  9995
2 48784  87.9009 256.9221 0002449 100.8652 259.2754 13.15548646245866
ONEWEB-0240             
1 48785U 21045U   26179.59156608  .00000187  00000+0  46179-3 0  9994
2 48785  87.9006 256.9124 0002119 108.7132 251.4229 13.15549995245904
ONEWEB-0246             
1 48786U 21045V   26179.58601429  .00000113  00000+0  26497-3 0  9990
2 48786  87.9007 256.9179 0001878 100.2721 259.8621 13.15550027245779
ONEWEB-0210             
1 48787U 21045W   26179.48460188 -.00000010  00000+0 -60142-4 0  9999
2 48787  87.9008 256.9353 0001209 113.1079 247.0179 13.15546913245802
ONEWEB-0214             
1 48788U 21045X   26179.49331365  .00000091  00000+0  20655-3 0  9996
2 48788  87.9007 256.9303 0001700  93.8625 266.2700 13.15549963245771
ONEWEB-0221             
1 48789U 21045Y   26179.57651335  .00000218  00000+0  54625-3 0  9993
2 48789  87.9007 256.9223 0001957 105.4541 254.6805 13.15550063245875
ONEWEB-0213             
1 48790U 21045Z   26179.48936385 -.00000001  00000+0 -35511-4 0  9992
2 48790  87.9006 256.9428 0001815 106.4944 253.6386 13.15548233245929
ONEWEB-0212             
1 48791U 21045AA  26179.61847933 -.00000141  00000+0 -40738-3 0  9999
2 48791  87.9008 256.9113 0002074  99.6546 260.4818 13.15550696245935
ONEWEB-0227             
1 48792U 21045AB  26179.61770561 -.00000107  00000+0 -31921-3 0  9998
2 48792  87.9006 256.9121 0002023 102.4659 257.6698 13.15549595245889
ONEWEB-0226             
1 48793U 21045AC  26179.61136066 -.00000053  00000+0 -17548-3 0  9994
2 48793  87.9004 256.9178 0001787 103.6670 256.4659 13.15546992245851
ONEWEB-0224             
1 48794U 21045AD  26179.57493121  .00000015  00000+0  69447-5 0  9991
2 48794  87.8998 256.9587 0002729 112.9220 247.2198 13.15547980245773
ONEWEB-0233             
1 48795U 21045AE  26179.57954283  .00000106  00000+0  24654-3 0  9993
2 48795  87.8996 256.9651 0001990 109.2132 250.9214 13.15549358245797
ONEWEB-0190             
1 48796U 21045AF  26179.49094726 -.00000041  00000+0 -14205-3 0  9993
2 48796  87.9002 256.9452 0001693 119.4315 240.6985 13.15548203245858
