OBJECT_NAME,OBJECT_ID,EPOCH,MEAN_MOTION,ECCENTRICITY,INCLINATION,RA_OF_ASC_NODE,ARG_OF_PERICENTER,MEAN_ANOMALY,EPHEMERIS_TYPE,CLASSIFICATION_TYPE,NORAD_CAT_ID,ELEMENT_SET_NO,REV_AT_EPOCH,BSTAR,MEAN_MOTION_DOT,MEAN_MOTION_DDOT
ONEWEB-0211,2021-045A,2026-06-28T14:15:15.268608,13.16197395,.00022896,87.9004,256.8072,116.9507,243.1858,0,U,48767,999,24594,.23013435E-3,.1E-5,0
ONEWEB-0223,2021-045B,2026-06-28T14:26:41.204256,13.15549912,.00019644,87.9008,256.9170,111.9962,248.1377,0,U,48768,999,24590,.81965309E-4,.44E-6,0
ONEWEB-0230,2021-045C,2026-06-28T13:45:37.046880,13.15548726,.00019404,87.8995,256.9354,95.3324,264.8028,0,U,48769,999,24616,.1314454E-3,.62E-6,0
ONEWEB-0237,2021-045D,2026-06-28T11:40:07.107168,13.15545904,.00015973,87.9000,256.9590,115.9883,244.1412,0,U,48770,999,24587,-.10281357E-2,-.374E-5,0
ONEWEB-0235,2021-045E,2026-06-28T14:42:39.605760,13.15549496,.00018993,87.9008,256.9159,111.3153,248.8180,0,U,48771,999,24588,-.31156094E-4,.1E-7,0
ONEWEB-0242,2021-045F,2026-06-28T14:33:31.914432,13.15548005,.00018136,87.9010,256.9142,101.4778,258.6556,0,U,48772,999,24592,.5246204E-5,.15E-6,0
ONEWEB-0241,2021-045G,2026-06-28T14:15:16.562880,13.15550057,.00021251,87.8997,256.9338,111.7311,248.4046,0,U,48773,999,24583,.21624969E-3,.94E-6,0
ONEWEB-0243,2021-045H,2026-06-28T11:21:51.350400,13.15550241,.00015042,87.8999,256.9703,104.9312,255.1985,0,U,48774,999,24584,-.11240716E-3,-.29E-6,0
ONEWEB-0222,2021-045J,2026-06-28T14:36:56.459520,13.15549893,.00020076,87.9008,256.9116,106.5481,253.5870,0,U,48775,999,24590,.12341928E-3,.59E-6,0
ONEWEB-0244,2021-045K,2026-06-28T15:14:36.002688,13.15549285,.00019168,87.9011,256.9017,103.0523,257.0822,0,U,48776,999,24647,-.39778956E-3,-.137E-5,0
ONEWEB-0247,2021-045L,2026-06-28T15:10:02.541504,13.15547808,.000149,87.8998,256.9331,120.2920,239.8358,0,U,48777,999,24591,-.39476348E-3,-.136E-5,0
ONEWEB-0245,2021-045M,2026-06-28T11:24:08.696160,13.15548793,.0002099,87.9007,256.9446,104.9314,255.2049,0,U,48778,999,24586,-.34668653E-3,-.118E-5,0
ONEWEB-0229,2021-045N,2026-06-28T11:17:17.623104,13.15550202,.00018755,87.9008,256.9433,100.3292,259.8049,0,U,48779,999,24589,-.16873122E-3,-.51E-6,0
ONEWEB-0228,2021-045P,2026-06-28T13:54:56.543040,13.15547955,.00019691,87.9011,256.9148,102.3303,257.8048,0,U,48780,999,24582,.31961786E-3,.133E-5,0
ONEWEB-0232,2021-045Q,2026-06-28T15:07:45.134400,13.15547331,.000209,87.9011,256.9055,101.2462,258.8903,0,U,48781,999,24615,-.32144809E-3,-.108E-5,0
ONEWEB-0231,2021-045R,2026-06-28T14:35:48.161184,13.15549139,.00019508,87.9005,256.9222,107.0040,253.1304,0,U,48782,999,24584,-.47355962E-4,-.5E-7,0
ONEWEB-0234,2021-045S,2026-06-28T06:22:45.307488,13.15549601,.0002858,87.9004,256.9724,100.6884,259.4568,0,U,48783,999,24593,.2176016E-5,.14E-6,0
ONEWEB-0238,2021-045T,2026-06-28T11:51:43.641504,13.15548646,.00024492,87.9009,256.9221,100.8652,259.2754,0,U,48784,999,24586,.12617836E-3,.6E-6,0
ONEWEB-0240,2021-045U,2026-06-28T14:11:51.309312,13.15549995,.00021195,87.9006,256.9124,108.7132,251.4229,0,U,48785,999,24590,.46178573E-3,.187E-5,0
ONEWEB-0246,2021-045V,2026-06-28T14:03:51.634656,13.15550027,.00018786,87.9007,256.9179,100.2721,259.8621,0,U,48786,999,24577,.26496588E-3,.113E-5,0
ONEWEB-0210,2021-045W,2026-06-28T11:37:49.602432,13.15546913,.00012096,87.9008,256.9353,113.1079,247.0179,0,U,48787,999,24580,-.60141629E-4,-.1E-6,0
ONEWEB-0214,2021-045X,2026-06-28T11:50:22.299360,13.15549963,.00017009,87.9007,256.9303,93.8625,266.2700,0,U,48788,999,24577,.20655484E-3,.91E-6,0
ONEWEB-0221,2021-045Y,2026-06-28T13:50:10.753440,13.15550063,.0001957,87.9007,256.9223,105.4541,254.6805,0,U,48789,999,24587,.54624987E-3,.218E-5,0
ONEWEB-0213,2021-045Z,2026-06-28T11:44:41.036640,13.15548233,.00018153,87.9006,256.9428,106.4944,253.6386,0,U,48790,999,24592,-.3551106E-4,-.1E-7,0
ONEWEB-0212,2021-045AA,2026-06-28T14:50:36.614112,13.15550696,.00020745,87.9008,256.9113,99.6546,260.4818,0,U,48791,999,24593,-.40737787E-3,-.141E-5,0
ONEWEB-0227,2021-045AB,2026-06-28T14:49:29.764704,13.15549595,.00020231,87.9006,256.9121,102.4659,257.6698,0,U,48792,999,24588,-.31920751E-3,-.107E-5,0
ONEWEB-0226,2021-045AC,2026-06-28T14:40:21.561024,13.15546992,.00017872,87.9004,256.9178,103.6670,256.4659,0,U,48793,999,24585,-.17547556E-3,-.53E-6,0
ONEWEB-0224,2021-045AD,2026-06-28T13:47:54.056544,13.15547980,.00027292,87.8998,256.9587,112.9220,247.2198,0,U,48794,999,24577,.694474E-5,.15E-6,0
ONEWEB-0233,2021-045AE,2026-06-28T13:54:32.500512,13.15549358,.00019901,87.8996,256.9651,109.2132,250.9214,0,U,48795,999,24579,.24653843E-3,.106E-5,0
ONEWEB-0190,2021-045AF,2026-06-28T11:46:57.843264,13.15548203,.00016932,87.9002,256.9452,119.4315,240.6985,0,U,48796,999,24585,-.14205425E-3,-.41E-6,0
